[{"OBJECT_NAME":"SKYCRAFT-4B","OBJECT_ID":"2025-154D","EPOCH":"2026-03-09T23:31:04.324224","MEAN_MOTION":14.96290027,"ECCENTRICITY":0.00045249,"INCLINATION":97.6762,"RA_OF_ASC_NODE":135.4663,"ARG_OF_PERICENTER":218.6003,"MEAN_ANOMALY":141.4895,"EPHEMERIS_TYPE":0,"CLASSIFICATION_TYPE":"U","NORAD_CAT_ID":64872,"ELEMENT_SET_NO":999,"REV_AT_EPOCH":3420,"BSTAR":0.00083632264,"MEAN_MOTION_DOT":9.402e-5,"MEAN_MOTION_DDOT":0},{"OBJECT_NAME":"STARLINK-35715","OBJECT_ID":"2025-280W","EPOCH":"2026-03-09T21:33:23.567616","MEAN_MOTION":14.98331958,"ECCENTRICITY":0.00024315,"INCLINATION":70.0025,"RA_OF_ASC_NODE":334.0679,"ARG_OF_PERICENTER":264.7252,"MEAN_ANOMALY":95.3629,"EPHEMERIS_TYPE":0,"CLASSIFICATION_TYPE":"U","NORAD_CAT_ID":66841,"ELEMENT_SET_NO":999,"REV_AT_EPOCH":1610,"BSTAR":0.00033987855,"MEAN_MOTION_DOT":3.965e-5,"MEAN_MOTION_DDOT":0}]
